[{"OBJECT_NAME":"ICEYE-X45","OBJECT_ID":"2025-009DA","EPOCH":"2026-03-09T17:22:29.842464","MEAN_MOTION":15.00857928,"ECCENTRICITY":8.841e-5,"INCLINATION":97.8049,"RA_OF_ASC_NODE":154.8158,"ARG_OF_PERICENTER":73.7941,"MEAN_ANOMALY":286.338,"EPHEMERIS_TYPE":0,"CLASSIFICATION_TYPE":"U","NORAD_CAT_ID":62705,"ELEMENT_SET_NO":999,"REV_AT_EPOCH":6276,"BSTAR":0.00045352987,"MEAN_MOTION_DOT":5.708e-5,"MEAN_MOTION_DDOT":0},{"OBJECT_NAME":"STARLINK-34437","OBJECT_ID":"2025-126C","EPOCH":"2026-03-09T23:34:18.023520","MEAN_MOTION":14.98330455,"ECCENTRICITY":0.00030023,"INCLINATION":70.0035,"RA_OF_ASC_NODE":33.8073,"ARG_OF_PERICENTER":264.1696,"MEAN_ANOMALY":95.9121,"EPHEMERIS_TYPE":0,"CLASSIFICATION_TYPE":"U","NORAD_CAT_ID":64346,"ELEMENT_SET_NO":999,"REV_AT_EPOCH":4072,"BSTAR":-0.00016943203,"MEAN_MOTION_DOT":-2.114e-5,"MEAN_MOTION_DDOT":0}]
